[{"OBJECT_NAME":"STARLINK-30327","OBJECT_ID":"2023-129K","EPOCH":"2026-03-09T12:25:28.993152","MEAN_MOTION":15.26626807,"ECCENTRICITY":0.00230309,"INCLINATION":42.9974,"RA_OF_ASC_NODE":85.9834,"ARG_OF_PERICENTER":70.832,"MEAN_ANOMALY":289.5022,"EPHEMERIS_TYPE":0,"CLASSIFICATION_TYPE":"U","NORAD_CAT_ID":57707,"ELEMENT_SET_NO":999,"REV_AT_EPOCH":14090,"BSTAR":0.00029313824,"MEAN_MOTION_DOT":7.635e-5,"MEAN_MOTION_DDOT":0},{"OBJECT_NAME":"STARLINK-32605","OBJECT_ID":"2024-207K","EPOCH":"2026-03-09T22:44:30.431616","MEAN_MOTION":15.27605453,"ECCENTRICITY":4.399e-5,"INCLINATION":42.9992,"RA_OF_ASC_NODE":280.0992,"ARG_OF_PERICENTER":303.357,"MEAN_ANOMALY":56.724,"EPHEMERIS_TYPE":0,"CLASSIFICATION_TYPE":"U","NORAD_CAT_ID":61921,"ELEMENT_SET_NO":999,"REV_AT_EPOCH":7476,"BSTAR":0.0015555166,"MEAN_MOTION_DOT":0.00042824,"MEAN_MOTION_DDOT":0}]
